start=new Date('2021-08-28T00:00:00.000Z').valueOf();
sats=[{"MEAN_MOTION_DDOT":"0.0000000000000","DECAY_DATE":null,"ECCENTRICITY":"0.00001710","TLE_LINE2":"2 47380  53.0563 260.8029 0000171  62.9503 297.1503 15.06400408 34032","BSTAR":"-0.00005120300000","FILE":"3104038","PERIAPSIS":"547.094","RCS_SIZE":"LARGE","EPHEMERIS_TYPE":"0","CENTER_NAME":"EARTH","LAUNCH_DATE":"2021-01-20","OBJECT_NAME":"STARLINK-2100","CLASSIFICATION_TYPE":"U","NORAD_CAT_ID":"47380","MEAN_MOTION":"15.06400408","REV_AT_EPOCH":"3403","GP_ID":"183556858","TLE_LINE1":"1 47380U 21005AH  21239.77856522 -.00001043  00000-0 -51203-4 0  9994","MEAN_ELEMENT_THEORY":"SGP4","OBJECT_ID":"2021-005AH","TIME_SYSTEM":"UTC","APOAPSIS":"547.331","INCLINATION":"53.0563","EPOCH":"2021-08-27T18:41:08.035008","COUNTRY_CODE":"US","OBJECT_TYPE":"PAYLOAD","SITE":"AFETR","MEAN_MOTION_DOT":"-0.00001043","RA_OF_ASC_NODE":"260.8029","REF_FRAME":"TEME","PERIOD":"95.592","SEMIMAJOR_AXIS":"6925.347","ARG_OF_PERICENTER":"62.9503","ELEMENT_SET_NO":"999","MEAN_ANOMALY":"297.1503"},{"DECAY_DATE":null,"MEAN_MOTION_DDOT":"0.0000000000000","ECCENTRICITY":"0.00002070","PERIAPSIS":"547.060","FILE":"3104038","RCS_SIZE":"LARGE","EPHEMERIS_TYPE":"0","CENTER_NAME":"EARTH","TLE_LINE2":"2 47381  53.0565 265.7636 0000207 305.2067  54.8903 15.06403443 33966","BSTAR":"0.00004965800000","LAUNCH_DATE":"2021-01-20","OBJECT_NAME":"STARLINK-2101","CLASSIFICATION_TYPE":"U","REV_AT_EPOCH":"3396","NORAD_CAT_ID":"47381","MEAN_MOTION":"15.06403443","MEAN_ELEMENT_THEORY":"SGP4","TIME_SYSTEM":"UTC","OBJECT_ID":"2021-005AJ","GP_ID":"183557095","TLE_LINE1":"1 47381U 21005AJ  21239.78637443  .00000459  00000-0  49658-4 0  9994","APOAPSIS":"547.346","INCLINATION":"53.0565","EPOCH":"2021-08-27T18:52:22.750752","COUNTRY_CODE":"US","OBJECT_TYPE":"PAYLOAD","SITE":"AFETR","MEAN_MOTION_DOT":"0.00000459","REF_FRAME":"TEME","RA_OF_ASC_NODE":"265.7636","PERIOD":"95.592","SEMIMAJOR_AXIS":"6925.338","ARG_OF_PERICENTER":"305.2067","MEAN_ANOMALY":"54.8903","ELEMENT_SET_NO":"999"},{"EPOCH":"2021-08-27T18:30:31.048416","APOAPSIS":"547.556","INCLINATION":"53.0502","TIME_SYSTEM":"UTC","OBJECT_ID":"2021-005AK","MEAN_ELEMENT_THEORY":"SGP4","TLE_LINE1":"1 47382U 21005AK  21239.77119269  .00000448  00000-0  48964-4 0  9992","GP_ID":"183557842","SITE":"AFETR","OBJECT_TYPE":"PAYLOAD","COUNTRY_CODE":"US","REF_FRAME":"TEME","RA_OF_ASC_NODE":"260.8449","MEAN_MOTION_DOT":"0.00000448","MEAN_ANOMALY":"307.7350","ELEMENT_SET_NO":"999","SEMIMAJOR_AXIS":"6925.339","ARG_OF_PERICENTER":"52.3685","PERIOD":"95.592","ECCENTRICITY":"0.00005090","DECAY_DATE":null,"MEAN_MOTION_DDOT":"0.0000000000000","LAUNCH_DATE":"2021-01-20","FILE":"3104038","RCS_SIZE":"LARGE","PERIAPSIS":"546.851","EPHEMERIS_TYPE":"0","CENTER_NAME":"EARTH","BSTAR":"0.00004896400000","TLE_LINE2":"2 47382  53.0502 260.8449 0000509  52.3685 307.7350 15.06403271 34020","CLASSIFICATION_TYPE":"U","OBJECT_NAME":"STARLINK-2102","REV_AT_EPOCH":"3402","MEAN_MOTION":"15.06403271","NORAD_CAT_ID":"47382"},{"TIME_SYSTEM":"UTC","OBJECT_ID":"2021-005AL","MEAN_ELEMENT_THEORY":"SGP4","TLE_LINE1":"1 47383U 21005AL  21239.45787636  .00000508  00000-0  52979-4 0  9995","GP_ID":"183531303","EPOCH":"2021-08-27T10:59:20.517504","INCLINATION":"53.0536","APOAPSIS":"547.866","COUNTRY_CODE":"US","SITE":"AFETR","OBJECT_TYPE":"PAYLOAD","REF_FRAME":"TEME","RA_OF_ASC_NODE":"252.2463","MEAN_MOTION_DOT":"0.00000508","SEMIMAJOR_AXIS":"6925.340","ARG_OF_PERICENTER":"60.5314","PERIOD":"95.592","MEAN_ANOMALY":"299.5770","ELEMENT_SET_NO":"999","DECAY_DATE":null,"MEAN_MOTION_DDOT":"0.0000000000000","ECCENTRICITY":"0.00009550","RCS_SIZE":"LARGE","FILE":"3103885","PERIAPSIS":"546.543","EPHEMERIS_TYPE":"0","CENTER_NAME":"EARTH","BSTAR":"0.00005297900000","TLE_LINE2":"2 47383  53.0536 252.2463 0000955  60.5314 299.5770 15.06402900 34127","LAUNCH_DATE":"2021-01-20","OBJECT_NAME":"STARLINK-2103","CLASSIFICATION_TYPE":"U","REV_AT_EPOCH":"3412","MEAN_MOTION":"15.06402900","NORAD_CAT_ID":"47383"},{"LAUNCH_DATE":"2021-01-20","BSTAR":"0.00005703300000","TLE_LINE2":"2 47384  53.0542 260.7132 0000347  65.7786 294.3239 15.06387415 34033","RCS_SIZE":"LARGE","FILE":"3104038","PERIAPSIS":"547.012","CENTER_NAME":"EARTH","EPHEMERIS_TYPE":"0","ECCENTRICITY":"0.00003470","MEAN_MOTION_DDOT":"0.0000000000000","DECAY_DATE":null,"MEAN_MOTION":"15.06387415","NORAD_CAT_ID":"47384","REV_AT_EPOCH":"3403","CLASSIFICATION_TYPE":"U","OBJECT_NAME":"STARLINK-2104","SITE":"AFETR","OBJECT_TYPE":"PAYLOAD","COUNTRY_CODE":"US","EPOCH":"2021-08-27T19:11:38.349024","INCLINATION":"53.0542","APOAPSIS":"547.492","TLE_LINE1":"1 47384U 21005AM  21239.79974941  .00000568  00000-0  57033-4 0  9992","GP_ID":"183556344","TIME_SYSTEM":"UTC","OBJECT_ID":"2021-005AM","MEAN_ELEMENT_THEORY":"SGP4","MEAN_ANOMALY":"294.3239","ELEMENT_SET_NO":"999","ARG_OF_PERICENTER":"65.7786","SEMIMAJOR_AXIS":"6925.387","PERIOD":"95.593","RA_OF_ASC_NODE":"260.7132","REF_FRAME":"TEME","MEAN_MOTION_DOT":"0.00000568"},{"RA_OF_ASC_NODE":"260.9259","REF_FRAME":"TEME","MEAN_MOTION_DOT":"0.00002698","SEMIMAJOR_AXIS":"6925.351","ARG_OF_PERICENTER":"94.8421","PERIOD":"95.592","MEAN_ANOMALY":"265.2648","ELEMENT_SET_NO":"999","TLE_LINE1":"1 47385U 21005AN  21239.75277134  .00002698  00000-0  19991-3 0  9995","GP_ID":"183557610","TIME_SYSTEM":"UTC","OBJECT_ID":"2021-005AN","MEAN_ELEMENT_THEORY":"SGP4","EPOCH":"2021-08-27T18:03:59.443776","INCLINATION":"53.0542","APOAPSIS":"547.703","COUNTRY_CODE":"US","SITE":"AFETR","OBJECT_TYPE":"PAYLOAD","OBJECT_NAME":"STARLINK-2105","CLASSIFICATION_TYPE":"U","MEAN_MOTION":"15.06399293","NORAD_CAT_ID":"47385","REV_AT_EPOCH":"3402","MEAN_MOTION_DDOT":"0.0000000000000","DECAY_DATE":null,"ECCENTRICITY":"0.00007040","BSTAR":"0.00019991000000","TLE_LINE2":"2 47385  53.0542 260.9259 0000704  94.8421 265.2648 15.06399293 34029","FILE":"3104038","RCS_SIZE":"LARGE","PERIAPSIS":"546.728","CENTER_NAME":"EARTH","EPHEMERIS_TYPE":"0","LAUNCH_DATE":"2021-01-20"},{"MEAN_MOTION_DDOT":"0.0000000000000","DECAY_DATE":null,"ECCENTRICITY":"0.00004590","TLE_LINE2":"2 47386  53.0552 260.7782 0000459  37.5614 322.5407 15.06406316 34031","BSTAR":"0.00006596700000","PERIAPSIS":"546.876","FILE":"3104038","RCS_SIZE":"LARGE","CENTER_NAME":"EARTH","EPHEMERIS_TYPE":"0","LAUNCH_DATE":"2021-01-20","OBJECT_NAME":"STARLINK-2106","CLASSIFICATION_TYPE":"U","NORAD_CAT_ID":"47386","MEAN_MOTION":"15.06406316","REV_AT_EPOCH":"3403","GP_ID":"183557328","TLE_LINE1":"1 47386U 21005AP  21239.78225233  .00000702  00000-0  65967-4 0  9991","MEAN_ELEMENT_THEORY":"SGP4","TIME_SYSTEM":"UTC","OBJECT_ID":"2021-005AP","INCLINATION":"53.0552","APOAPSIS":"547.512","EPOCH":"2021-08-27T18:46:26.601312","COUNTRY_CODE":"US","OBJECT_TYPE":"PAYLOAD","SITE":"AFETR","MEAN_MOTION_DOT":"0.00000702","RA_OF_ASC_NODE":"260.7782","REF_FRAME":"TEME","PERIOD":"95.592","ARG_OF_PERICENTER":"37.5614","SEMIMAJOR_AXIS":"6925.329","MEAN_ANOMALY":"322.5407","ELEMENT_SET_NO":"999"},{"GP_ID":"183556095","TLE_LINE1":"1 47387U 21005AQ  21239.63573517  .00000845  00000-0  75637-4 0  9990","MEAN_ELEMENT_THEORY":"SGP4","OBJECT_ID":"2021-005AQ","TIME_SYSTEM":"UTC","APOAPSIS":"547.801","INCLINATION":"53.0553","EPOCH":"2021-08-27T15:15:27.518688","COUNTRY_CODE":"US","OBJECT_TYPE":"PAYLOAD","SITE":"AFETR","MEAN_MOTION_DOT":"0.00000845","RA_OF_ASC_NODE":"291.4420","REF_FRAME":"TEME","PERIOD":"95.593","ARG_OF_PERICENTER":"91.7473","SEMIMAJOR_AXIS":"6925.379","ELEMENT_SET_NO":"999","MEAN_ANOMALY":"268.3608","MEAN_MOTION_DDOT":"0.0000000000000","DECAY_DATE":null,"ECCENTRICITY":"0.00008050","TLE_LINE2":"2 47387  53.0553 291.4420 0000805  91.7473 268.3608 15.06390096 33589","BSTAR":"0.00007563700000","FILE":"3104038","EPHEMERIS_TYPE":"0","RCS_SIZE":"LARGE","PERIAPSIS":"546.686","CENTER_NAME":"EARTH","LAUNCH_DATE":"2021-01-20","OBJECT_NAME":"STARLINK-2108","CLASSIFICATION_TYPE":"U","NORAD_CAT_ID":"47387","MEAN_MOTION":"15.06390096","REV_AT_EPOCH":"3358"},{"CLASSIFICATION_TYPE":"U","OBJECT_NAME":"STARLINK-2109","MEAN_MOTION":"15.06395816","NORAD_CAT_ID":"47388","REV_AT_EPOCH":"3356","ECCENTRICITY":"0.00007230","MEAN_MOTION_DDOT":"0.0000000000000","DECAY_DATE":null,"LAUNCH_DATE":"2021-01-20","BSTAR":"-0.00003085600000","TLE_LINE2":"2 47388  53.0554 291.9723 0000723 102.6816 257.4254 15.06395816 33563","PERIAPSIS":"546.726","FILE":"3104038","RCS_SIZE":"LARGE","EPHEMERIS_TYPE":"0","CENTER_NAME":"EARTH","REF_FRAME":"TEME","RA_OF_ASC_NODE":"291.9723","MEAN_MOTION_DOT":"-0.00000741","MEAN_ANOMALY":"257.4254","ELEMENT_SET_NO":"999","SEMIMAJOR_AXIS":"6925.361","ARG_OF_PERICENTER":"102.6816","PERIOD":"95.592","EPOCH":"2021-08-27T12:25:36.675840","APOAPSIS":"547.727","INCLINATION":"53.0554","TLE_LINE1":"1 47388U 21005AR  21239.51778560 -.00000741  00000-0 -30856-4 0  9994","GP_ID":"183556859","OBJECT_ID":"2021-005AR","TIME_SYSTEM":"UTC","MEAN_ELEMENT_THEORY":"SGP4","SITE":"AFETR","OBJECT_TYPE":"PAYLOAD","COUNTRY_CODE":"US"},{"TLE_LINE1":"1 47389U 21005AS  21239.36481121  .00001134  00000-0  94972-4 0  9996","GP_ID":"183530329","TIME_SYSTEM":"UTC","OBJECT_ID":"2021-005AS","MEAN_ELEMENT_THEORY":"SGP4","EPOCH":"2021-08-27T08:45:19.688544","APOAPSIS":"547.717","INCLINATION":"53.0501","COUNTRY_CODE":"US","SITE":"AFETR","OBJECT_TYPE":"PAYLOAD","RA_OF_ASC_NODE":"272.6653","REF_FRAME":"TEME","MEAN_MOTION_DOT":"0.00001134","SEMIMAJOR_AXIS":"6925.339","ARG_OF_PERICENTER":"75.1472","PERIOD":"95.592","MEAN_ANOMALY":"284.9598","ELEMENT_SET_NO":"999","MEAN_MOTION_DDOT":"0.0000000000000","DECAY_DATE":null,"ECCENTRICITY":"0.00007400","BSTAR":"0.00009497200000","TLE_LINE2":"2 47389  53.0501 272.6653 0000740  75.1472 284.9598 15.06403076 33828","FILE":"3103885","EPHEMERIS_TYPE":"0","RCS_SIZE":"LARGE","PERIAPSIS":"546.692","CENTER_NAME":"EARTH","LAUNCH_DATE":"2021-01-20","OBJECT_NAME":"STARLINK-2110","CLASSIFICATION_TYPE":"U","MEAN_MOTION":"15.06403076","NORAD_CAT_ID":"47389","REV_AT_EPOCH":"3382"}];
